start=new Date('2022-02-16T00:00:00.000Z').valueOf();
sats=[{"RA_OF_ASC_NODE":"53.9312","TLE_LINE1":"1 45732U 20038C   22046.71795853  .00001947  00000-0  14965-3 0  9992","NORAD_CAT_ID":"45732","TLE_LINE2":"2 45732  53.0563  53.9312 0001737  56.0085 304.1069 15.06388118 92678","RCS_SIZE":"LARGE","EPHEMERIS_TYPE":"0","MEAN_MOTION_DOT":"0.00001947","REF_FRAME":"TEME","GP_ID":"196057869","CENTER_NAME":"EARTH","APOAPSIS":"548.453","OBJECT_TYPE":"PAYLOAD","TIME_SYSTEM":"UTC","REV_AT_EPOCH":"9267","OBJECT_ID":"2020-038C","EPOCH":"2022-02-15T17:13:51.616992","ARG_OF_PERICENTER":"56.0085","MEAN_MOTION_DDOT":"0.0000000000000","MEAN_ELEMENT_THEORY":"SGP4","MEAN_ANOMALY":"304.1069","LAUNCH_DATE":"2020-06-13","INCLINATION":"53.0563","COUNTRY_CODE":"US","SEMIMAJOR_AXIS":"6925.385","DECAY_DATE":null,"ECCENTRICITY":"0.00017370","PERIOD":"95.593","SITE":"AFETR","PERIAPSIS":"546.047","FILE":"3301463","CLASSIFICATION_TYPE":"U","ELEMENT_SET_NO":"999","BSTAR":"0.00014965000000","OBJECT_NAME":"STARLINK-1466","MEAN_MOTION":"15.06388118"},{"GP_ID":"196056116","APOAPSIS":"548.344","CENTER_NAME":"EARTH","OBJECT_TYPE":"PAYLOAD","TIME_SYSTEM":"UTC","REV_AT_EPOCH":"9267","OBJECT_ID":"2020-038D","EPHEMERIS_TYPE":"0","MEAN_MOTION_DOT":"0.00004892","REF_FRAME":"TEME","RCS_SIZE":"LARGE","TLE_LINE1":"1 45733U 20038D   22046.72532374  .00004892  00000-0  34703-3 0  9995","RA_OF_ASC_NODE":"53.9163","NORAD_CAT_ID":"45733","TLE_LINE2":"2 45733  53.0548  53.9163 0001652  50.7746 309.3390 15.06404413 92678","ELEMENT_SET_NO":"999","BSTAR":"0.00034703000000","OBJECT_NAME":"STARLINK-1467","MEAN_MOTION":"15.06404413","SITE":"AFETR","PERIAPSIS":"546.056","FILE":"3301463","CLASSIFICATION_TYPE":"U","COUNTRY_CODE":"US","SEMIMAJOR_AXIS":"6925.335","INCLINATION":"53.0548","DECAY_DATE":null,"PERIOD":"95.592","ECCENTRICITY":"0.00016520","EPOCH":"2022-02-15T17:24:27.971136","ARG_OF_PERICENTER":"50.7746","MEAN_MOTION_DDOT":"0.0000000000000","MEAN_ELEMENT_THEORY":"SGP4","LAUNCH_DATE":"2020-06-13","MEAN_ANOMALY":"309.3390"},{"ELEMENT_SET_NO":"999","MEAN_MOTION":"15.06398804","BSTAR":"0.00048596000000","OBJECT_NAME":"STARLINK-1468","PERIAPSIS":"545.886","SITE":"AFETR","CLASSIFICATION_TYPE":"U","FILE":"3301463","COUNTRY_CODE":"US","INCLINATION":"53.0557","SEMIMAJOR_AXIS":"6925.352","PERIOD":"95.592","DECAY_DATE":null,"ECCENTRICITY":"0.00019220","MEAN_MOTION_DDOT":"0.0000000000000","EPOCH":"2022-02-15T16:57:57.760128","ARG_OF_PERICENTER":"52.5013","LAUNCH_DATE":"2020-06-13","MEAN_ANOMALY":"307.6151","MEAN_ELEMENT_THEORY":"SGP4","OBJECT_TYPE":"PAYLOAD","TIME_SYSTEM":"UTC","GP_ID":"196056368","CENTER_NAME":"EARTH","APOAPSIS":"548.548","OBJECT_ID":"2020-038E","REV_AT_EPOCH":"9267","MEAN_MOTION_DOT":"0.00006964","EPHEMERIS_TYPE":"0","REF_FRAME":"TEME","RCS_SIZE":"LARGE","RA_OF_ASC_NODE":"53.9820","TLE_LINE1":"1 45734U 20038E   22046.70691852  .00006964  00000-0  48596-3 0  9998","TLE_LINE2":"2 45734  53.0557  53.9820 0001922  52.5013 307.6151 15.06398804 92678","NORAD_CAT_ID":"45734"},{"MEAN_MOTION":"15.06389726","BSTAR":"0.00008431300000","OBJECT_NAME":"STARLINK-1471","ELEMENT_SET_NO":"999","CLASSIFICATION_TYPE":"U","FILE":"3301463","PERIAPSIS":"546.146","SITE":"AFETR","DECAY_DATE":null,"ECCENTRICITY":"0.00015870","PERIOD":"95.593","COUNTRY_CODE":"US","SEMIMAJOR_AXIS":"6925.380","INCLINATION":"53.0555","LAUNCH_DATE":"2020-06-13","MEAN_ANOMALY":"299.8482","MEAN_ELEMENT_THEORY":"SGP4","MEAN_MOTION_DDOT":"0.0000000000000","EPOCH":"2022-02-15T17:51:00.851040","ARG_OF_PERICENTER":"60.2665","OBJECT_ID":"2020-038F","REV_AT_EPOCH":"9267","OBJECT_TYPE":"PAYLOAD","TIME_SYSTEM":"UTC","APOAPSIS":"548.344","GP_ID":"196057119","CENTER_NAME":"EARTH","REF_FRAME":"TEME","MEAN_MOTION_DOT":"0.00000974","EPHEMERIS_TYPE":"0","RCS_SIZE":"LARGE","TLE_LINE2":"2 45735  53.0555  53.8253 0001587  60.2665 299.8482 15.06389726 92674","NORAD_CAT_ID":"45735","TLE_LINE1":"1 45735U 20038F   22046.74375985  .00000974  00000-0  84313-4 0  9992","RA_OF_ASC_NODE":"53.8253"},{"FILE":"3301463","CLASSIFICATION_TYPE":"U","SITE":"AFETR","PERIAPSIS":"477.759","BSTAR":"0.01384400000000","OBJECT_NAME":"STARLINK-1472","MEAN_MOTION":"15.28911272","ELEMENT_SET_NO":"999","MEAN_ELEMENT_THEORY":"SGP4","MEAN_ANOMALY":"303.1093","LAUNCH_DATE":"2020-06-13","EPOCH":"2022-02-15T17:44:39.660288","ARG_OF_PERICENTER":"57.0089","MEAN_MOTION_DDOT":"0.0000000000000","DECAY_DATE":null,"ECCENTRICITY":"0.00019090","PERIOD":"94.185","COUNTRY_CODE":"US","SEMIMAJOR_AXIS":"6857.203","INCLINATION":"53.0637","REF_FRAME":"TEME","EPHEMERIS_TYPE":"0","MEAN_MOTION_DOT":"0.00416639","REV_AT_EPOCH":"9272","OBJECT_ID":"2020-038G","GP_ID":"196057370","CENTER_NAME":"EARTH","APOAPSIS":"480.377","OBJECT_TYPE":"PAYLOAD","TIME_SYSTEM":"UTC","NORAD_CAT_ID":"45736","TLE_LINE2":"2 45736  53.0637  50.5369 0001909  57.0089 303.1093 15.28911272 92724","RA_OF_ASC_NODE":"50.5369","TLE_LINE1":"1 45736U 20038G   22046.73934792  .00416639  00000-0  13844-1 0  9996","RCS_SIZE":"LARGE"},{"OBJECT_ID":"2020-038J","REV_AT_EPOCH":"9267","OBJECT_TYPE":"PAYLOAD","TIME_SYSTEM":"UTC","GP_ID":"196056616","CENTER_NAME":"EARTH","APOAPSIS":"548.406","REF_FRAME":"TEME","MEAN_MOTION_DOT":"0.00001354","EPHEMERIS_TYPE":"0","RCS_SIZE":"LARGE","TLE_LINE2":"2 45738  53.0561  53.8671 0001697  58.4912 301.6243 15.06394311 92677","NORAD_CAT_ID":"45738","RA_OF_ASC_NODE":"53.8671","TLE_LINE1":"1 45738U 20038J   22046.73270376  .00001354  00000-0  10979-3 0  9991","MEAN_MOTION":"15.06394311","BSTAR":"0.00010979000000","OBJECT_NAME":"STARLINK-1474","ELEMENT_SET_NO":"999","CLASSIFICATION_TYPE":"U","FILE":"3301463","PERIAPSIS":"546.056","SITE":"AFETR","PERIOD":"95.593","DECAY_DATE":null,"ECCENTRICITY":"0.00016970","COUNTRY_CODE":"US","SEMIMAJOR_AXIS":"6925.366","INCLINATION":"53.0561","MEAN_ANOMALY":"301.6243","LAUNCH_DATE":"2020-06-13","MEAN_ELEMENT_THEORY":"SGP4","MEAN_MOTION_DDOT":"0.0000000000000","EPOCH":"2022-02-15T17:35:05.604864","ARG_OF_PERICENTER":"58.4912"},{"MEAN_ANOMALY":"295.1995","LAUNCH_DATE":"2020-06-13","MEAN_ELEMENT_THEORY":"SGP4","MEAN_MOTION_DDOT":"0.0000000000000","ARG_OF_PERICENTER":"64.9178","EPOCH":"2022-02-15T21:07:24.219552","DECAY_DATE":null,"ECCENTRICITY":"0.00017780","PERIOD":"95.593","COUNTRY_CODE":"US","SEMIMAJOR_AXIS":"6925.413","INCLINATION":"53.0562","CLASSIFICATION_TYPE":"U","FILE":"3301463","PERIAPSIS":"546.046","SITE":"AFETR","MEAN_MOTION":"15.06379082","OBJECT_NAME":"STARLINK-1475","BSTAR":"0.00003959400000","ELEMENT_SET_NO":"999","TLE_LINE2":"2 45739  53.0562  13.2047 0001778  64.9178 295.1995 15.06379082 93256","NORAD_CAT_ID":"45739","RA_OF_ASC_NODE":"13.2047","TLE_LINE1":"1 45739U 20038K   22046.88014143  .00000308  00000-0  39594-4 0  9999","RCS_SIZE":"LARGE","REF_FRAME":"TEME","MEAN_MOTION_DOT":"0.00000308","EPHEMERIS_TYPE":"0","OBJECT_ID":"2020-038K","REV_AT_EPOCH":"9325","TIME_SYSTEM":"UTC","OBJECT_TYPE":"PAYLOAD","APOAPSIS":"548.509","GP_ID":"196056868","CENTER_NAME":"EARTH"},{"DECAY_DATE":null,"PERIOD":"95.593","ECCENTRICITY":"0.00015360","SEMIMAJOR_AXIS":"6925.373","COUNTRY_CODE":"US","INCLINATION":"53.0551","MEAN_ELEMENT_THEORY":"SGP4","LAUNCH_DATE":"2020-06-13","MEAN_ANOMALY":"289.6440","EPOCH":"2022-02-15T17:45:42.491232","ARG_OF_PERICENTER":"70.4714","MEAN_MOTION_DDOT":"0.0000000000000","BSTAR":"0.00020731000000","OBJECT_NAME":"STARLINK-1479","MEAN_MOTION":"15.06391981","ELEMENT_SET_NO":"999","FILE":"3301463","CLASSIFICATION_TYPE":"U","SITE":"AFETR","PERIAPSIS":"546.174","RCS_SIZE":"LARGE","NORAD_CAT_ID":"45740","TLE_LINE2":"2 45740  53.0551  53.8437 0001536  70.4714 289.6440 15.06391981 92679","TLE_LINE1":"1 45740U 20038L   22046.74007513  .00002807  00000-0  20731-3 0  9997","RA_OF_ASC_NODE":"53.8437","REV_AT_EPOCH":"9267","OBJECT_ID":"2020-038L","CENTER_NAME":"EARTH","GP_ID":"196057619","APOAPSIS":"548.302","OBJECT_TYPE":"PAYLOAD","TIME_SYSTEM":"UTC","REF_FRAME":"TEME","EPHEMERIS_TYPE":"0","MEAN_MOTION_DOT":"0.00002807"},{"OBJECT_NAME":"STARLINK-1480","BSTAR":"-0.00002418200000","MEAN_MOTION":"15.06385372","ELEMENT_SET_NO":"999","FILE":"3301463","CLASSIFICATION_TYPE":"U","SITE":"AFETR","PERIAPSIS":"546.030","ECCENTRICITY":"0.00017740","DECAY_DATE":null,"PERIOD":"95.593","COUNTRY_CODE":"US","INCLINATION":"53.0556","SEMIMAJOR_AXIS":"6925.393","MEAN_ELEMENT_THEORY":"SGP4","MEAN_ANOMALY":"303.4001","LAUNCH_DATE":"2020-06-13","ARG_OF_PERICENTER":"56.7158","EPOCH":"2022-02-15T17:03:15.056352","MEAN_MOTION_DDOT":"0.0000000000000","REV_AT_EPOCH":"9268","OBJECT_ID":"2020-038M","CENTER_NAME":"EARTH","GP_ID":"196057870","APOAPSIS":"548.487","TIME_SYSTEM":"UTC","OBJECT_TYPE":"PAYLOAD","REF_FRAME":"TEME","EPHEMERIS_TYPE":"0","MEAN_MOTION_DOT":"-0.00000642","RCS_SIZE":"LARGE","NORAD_CAT_ID":"45741","TLE_LINE2":"2 45741  53.0556  53.9802 0001774  56.7158 303.4001 15.06385372 92681","TLE_LINE1":"1 45741U 20038M   22046.71059093 -.00000642  00000-0 -24182-4 0  9997","RA_OF_ASC_NODE":"53.9802"},{"REF_FRAME":"TEME","MEAN_MOTION_DOT":"-0.00002487","EPHEMERIS_TYPE":"0","OBJECT_ID":"2020-038N","REV_AT_EPOCH":"9262","TIME_SYSTEM":"UTC","OBJECT_TYPE":"PAYLOAD","GP_ID":"196026271","CENTER_NAME":"EARTH","APOAPSIS":"548.426","TLE_LINE2":"2 45742  53.0540  55.1895 0001702  60.7698 299.3461 15.06389064 92625","NORAD_CAT_ID":"45742","RA_OF_ASC_NODE":"55.1895","TLE_LINE1":"1 45742U 20038N   22046.43782359 -.00002487  00000-0 -14816-3 0  9996","RCS_SIZE":"LARGE","CLASSIFICATION_TYPE":"U","FILE":"3301229","PERIAPSIS":"546.068","SITE":"AFETR","MEAN_MOTION":"15.06389064","OBJECT_NAME":"STARLINK-1481","BSTAR":"-0.00014816000000","ELEMENT_SET_NO":"999","LAUNCH_DATE":"2020-06-13","MEAN_ANOMALY":"299.3461","MEAN_ELEMENT_THEORY":"SGP4","MEAN_MOTION_DDOT":"0.0000000000000","ARG_OF_PERICENTER":"60.7698","EPOCH":"2022-02-15T10:30:27.958176","PERIOD":"95.593","DECAY_DATE":null,"ECCENTRICITY":"0.00017020","COUNTRY_CODE":"US","SEMIMAJOR_AXIS":"6925.382","INCLINATION":"53.0540"}];
